IRIDIUM 126             
1 42809U 17039G   24147.95100683  .00000325  00000+0  10913-3 0  9999
2 42809  86.3940 307.5831 0002094  84.3060 275.8374 14.34216816362270
IRIDIUM 124             
1 42810U 17039H   24147.99144907  .00000713  00000+0  20606-3 0  9993
2 42810  86.4510 244.2792 0002158 105.8758 254.2681 14.43264861366766
IRIDIUM 128             
1 42811U 17039J   24147.94172349  .00000142  00000+0  43818-4 0  9997
2 42811  86.3961 339.1164 0001942  90.7749 269.3669 14.34214739362303
IRIDIUM 121             
1 42812U 17039K   24148.17933979  .00000236  00000+0  77035-4 0  9990
2 42812  86.3940 307.5103 0002138  94.0682 266.0758 14.34217574362307
IRIDIUM 133             
1 42955U 17061A   24147.90367190  .00000039  00000+0  69544-5 0  9997
2 42955  86.3964 339.2315 0002129  85.7994 274.3445 14.34214402347092
IRIDIUM 100             
1 42956U 17061B   24147.89732879  .00000189  00000+0  60310-4 0  9993
2 42956  86.3962 339.1703 0002145  85.3611 274.7830 14.34216725347093
IRIDIUM 122             
1 42957U 17061C   24147.93537712  .00000141  00000+0  43206-4 0  9991
2 42957  86.3963 339.1526 0002092  86.8751 273.2684 14.34214951347102
IRIDIUM 129             
1 42958U 17061D   24147.96075536  .00000139  00000+0  42468-4 0  9992
2 42958  86.3963 339.2012 0002020  84.1211 276.0215 14.34214954347123
